{"type": "FeatureCollection", "name": "Oyo-East-Digitized", "crs": {"type": "name", "properties": {"name": "urn:ogc:def:crs:OGC:1.3:CRS84"}}, "features": [{"type": "Feature", "properties": {"Id": null, "Rock Type": "Biotite, biotite hornblende gneiss", "Map Code": "Gb", "Mineralogy": "Biotite, hornblende, plagioclase, quartz", "Age": "Precambrian (Archean to Paleoproterozoic)", "Uses": "Aggregate, building stone"}, "geometry": {"type": "MultiPolygon", "coordinates": [[[[4.072491595000031, 7.808732969000062], [4.070667763000074, 7.800783024000054], [4.072131157000058, 7.796392566000065], [4.071606165276969, 7.79324287731794], [4.065155087767853, 7.790911248333201], [4.060531550374376, 7.793344689066609], [4.057124733347603, 7.789694527966496], [4.051527819660762, 7.785314334646359], [4.047390970413966, 7.784340958352995], [4.046417594120603, 7.790181216113178], [4.048121002633989, 7.793344689066609], [4.04836434670733, 7.799671634973474], [4.050311099294057, 7.804538516440291], [4.051771163734103, 7.807215301247042], [4.054447948540853, 7.813785591227247], [4.059801518154353, 7.819139160840747], [4.066128464061217, 7.820599225280792], [4.068075216647944, 7.823519354160883], [4.071725377748058, 7.823519354160883], [4.076208185000041, 7.824930188000053], [4.072491595000031, 7.808732969000062]]]]}}, {"type": "Feature", "properties": {"Id": null, "Rock Type": "Marble", "Map Code": "m", "Mineralogy": "Calcite, dolomite, minor mica and graphite", "Age": "Precambrian (Neoproterozoic metasediment)", "Uses": "Cement and lime, dimension stone, agricultural lime"}, "geometry": {"type": "MultiPolygon", "coordinates": [[[[3.947643110000058, 7.714104233000057], [3.932711648000065, 7.72210870400005], [3.916163415000028, 7.72790096600005], [3.91640983131263, 7.740976108744727], [3.917057368416205, 7.756090301681863], [3.917057368416206, 7.756090301681864], [3.928030700003445, 7.764755758256378], [3.929121198937022, 7.765502527370536], [3.929375898081747, 7.765676944280839], [3.931500915064548, 7.761331524038012], [3.932904736808913, 7.762735345782377], [3.93501046942546, 7.760980568601921], [3.937818112914189, 7.757821969677101], [3.939572890094645, 7.755014326188372], [3.940274800966827, 7.75150477182746], [3.942380533583373, 7.750100950083096], [3.942380533583373, 7.745538529413912], [3.94413531076383, 7.742379930489091], [3.943433399891647, 7.740976108744727], [3.947293909688649, 7.738519420692088], [3.946942954252558, 7.731500311970266], [3.953260152102199, 7.728341713045445], [3.955716840154837, 7.726937891301081], [3.958524483643566, 7.724130247812352], [3.961683082568386, 7.719567827143167], [3.964139770621024, 7.714654451037891], [3.965543592365389, 7.710092030368706], [3.963130432000071, 7.705559408000056], [3.947643110000058, 7.714104233000057]]]]}}, {"type": "Feature", "properties": {"Id": null, "Rock Type": "Undifferentiated Schist and Gneiss", "Map Code": "Su", "Mineralogy": "Quartz, muscovite, biotite, feldspar", "Age": "Precambrian", "Uses": "Aggregate; weathered zones can hold groundwater"}, "geometry": {"type": "MultiPolygon", "coordinates": [[[[4.061939321000068, 7.748830206000036], [4.069413150000059, 7.74067642600005], [4.074169680000068, 7.735920383000064], [4.074849105000055, 7.729125876000069], [4.076208131000044, 7.718933553000056], [4.076629972000035, 7.71668386500005], [4.077789664000022, 7.710499103000075], [4.060765924090088, 7.701135148383311], [4.056281118000072, 7.69882330300004], [4.03903774500003, 7.684977871000058], [4.024728968000034, 7.66491764400007], [4.024944255000037, 7.67442042600004], [4.020828842000071, 7.678366419000042], [4.020390331000044, 7.681277670000043], [4.018163024000046, 7.688467090000074], [4.01442071200006, 7.692238373000066], [4.013805962000049, 7.692567146000044], [4.006054250934597, 7.694056850887872], [3.991084791141771, 7.697310512312057], [3.991084791141769, 7.697310512312058], [3.989597605060562, 7.702434943188697], [3.987518556658991, 7.709018596460339], [3.983706967922777, 7.713176693263482], [3.982320935655062, 7.719067330401267], [3.978855854985777, 7.724957967539053], [3.974351250115706, 7.731541620810695], [3.971232677513349, 7.738471782149267], [3.966381564576349, 7.742976387019337], [3.962569975840135, 7.747827499956337], [3.957372354836207, 7.754757661294908], [3.95425378223385, 7.756143693562622], [3.95425378223385, 7.763766871035051], [3.951201470000058, 7.774361099000032], [3.956576581505023, 7.777133409044079], [3.959451403237778, 7.768271475905122], [3.961876959706278, 7.762034330700407], [3.966728072643278, 7.755450677428765], [3.97088616944642, 7.74956004029098], [3.976776806584206, 7.742629878952409], [3.982667443721991, 7.735699717613838], [3.98994411312749, 7.734313685346124], [3.992716177662919, 7.731541620810695], [4.001032371269204, 7.732234636944552], [4.008655548741633, 7.738125274082337], [4.012813645544774, 7.736739241814623], [4.015932218147132, 7.744015911220123], [4.020090314950274, 7.746787975755551], [4.027020476288845, 7.744362419287052], [4.023901903686489, 7.746787975755551], [4.023901903686489, 7.752678612893337], [4.02112983915106, 7.760648298432693], [4.018357774615632, 7.76861798397205], [4.017318250414846, 7.774162113042907], [4.014892693946346, 7.779359734046835], [4.014199677812489, 7.784903863117692], [4.019397298816417, 7.780745766314549], [4.024248411753417, 7.775548145310621], [4.028753016623488, 7.771736556574408], [4.033604129560488, 7.767578459771265], [4.037069210229774, 7.761687822633479], [4.040534290899059, 7.768964492038979], [4.040534290899059, 7.774508621109836], [4.04261333930063, 7.780052750180692], [4.047390970413966, 7.784340958352995], [4.057124733347603, 7.789694527966496], [4.060531550374376, 7.793344689066609], [4.065155087767853, 7.790911248333201], [4.062364299115558, 7.784557355050763], [4.058899218446272, 7.781092274381479], [4.059592234580129, 7.774508621109836], [4.0592457265132, 7.76861798397205], [4.061671282981701, 7.763766871035051], [4.062710807182486, 7.759955282298836], [4.06125971900002, 7.754265721000024], [4.061939321000068, 7.748830206000036]]]]}}, {"type": "Feature", "properties": {"Id": null, "Rock Type": "Undifferentiated Schist and Gneiss", "Map Code": "Su", "Mineralogy": "Quartz, muscovite, biotite, feldspar", "Age": "Precambrian", "Uses": "Aggregate; weathered zones can hold groundwater"}, "geometry": {"type": "MultiPolygon", "coordinates": [[[[3.952137243000038, 7.825824275000059], [3.950701801782976, 7.827817969940885], [3.949127891139736, 7.830790912267005], [3.948953012179376, 7.834813128355284], [3.948778133219016, 7.839359981324644], [3.949050611000075, 7.843914219000055], [3.950990340000033, 7.845203479000077], [3.952472796000052, 7.846256711000024], [3.952841594000063, 7.846700639000062], [3.955545029000064, 7.848939130000076], [3.958263850000037, 7.852190325000038], [3.959053990000029, 7.85334905600007], [3.960060058000067, 7.855543872000055], [3.963257007000038, 7.857538982000051], [3.965391634453214, 7.854224692955242], [3.962593571087454, 7.851776387510203], [3.963467965889254, 7.845305865976883], [3.961194539404574, 7.842507802611123], [3.961194539404574, 7.833588975632765], [3.961828124758721, 7.831509954609543], [3.958115418000034, 7.830285075000063], [3.952137243000038, 7.825824275000059]]]]}}, {"type": "Feature", "properties": {"Id": null, "Rock Type": "Undifferentiated Schist and Gneiss", "Map Code": "Su", "Mineralogy": "Quartz, muscovite, biotite, feldspar", "Age": "Precambrian", "Uses": "Aggregate; weathered zones can hold groundwater"}, "geometry": {"type": "MultiPolygon", "coordinates": [[[[3.928764297000043, 7.794354519000024], [3.917288213000063, 7.795704151000052], [3.915737224000054, 7.797955283000022], [3.916179396000075, 7.805624115000057], [3.918873830997459, 7.806657615737327], [3.919923104759619, 7.808581284301287], [3.917458460000034, 7.812290597000072], [3.917505902000073, 7.813342773000045], [3.917474915000071, 7.815569150000044], [3.918452972000068, 7.816634196000052], [3.919845440000074, 7.819127809000065], [3.920533072000069, 7.823219899000037], [3.920559876000027, 7.825756503000036], [3.922321255000043, 7.828502482000033], [3.926218747332578, 7.826943575139085], [3.927617779015458, 7.822396722169725], [3.929366568619058, 7.818024748160726], [3.930066084460498, 7.813827653112086], [3.932514389905537, 7.812428621429206], [3.931989753024458, 7.808231526380567], [3.933913421588418, 7.806832494697687], [3.933563663667697, 7.802110762767968], [3.936186848073097, 7.801411246926528], [3.938043089000075, 7.798330793000048], [3.928764297000043, 7.794354519000024]]]]}}, {"type": "Feature", "properties": {"Id": null, "Rock Type": "Migmatite", "Map Code": "M", "Mineralogy": "Quartz, feldspar, biotite; banded light and dark layers", "Age": "Precambrian (Archean to Paleoproterozoic)", "Uses": "Crushed aggregate, building stone"}, "geometry": {"type": "MultiPolygon", "coordinates": [[[[4.090175679000026, 7.937615988000061], [4.094687969000063, 7.930283483000039], [4.094970853000063, 7.926197665000075], [4.091427729000031, 7.918892678000077], [4.087884750000057, 7.911587396000073], [4.083007783000028, 7.895192310000027], [4.082013414000073, 7.887921321000022], [4.080655094000065, 7.880645159000039], [4.080359414000043, 7.875560832000076], [4.081519924000077, 7.870495736000066], [4.086286418000043, 7.868019300000071], [4.089635280000039, 7.868064060000052], [4.089797435000037, 7.863659268000049], [4.091146486000071, 7.850165927000035], [4.076208185000041, 7.824930188000053], [4.066128464061217, 7.820599225280792], [4.059801518154353, 7.819139160840747], [4.054447948540853, 7.813785591227247], [4.051771163734103, 7.807215301247042], [4.04836434670733, 7.799671634973474], [4.046417594120603, 7.790181216113178], [4.047390970413966, 7.784340958352995], [4.04261333930063, 7.780052750180692], [4.040534290899059, 7.774508621109836], [4.040534290899059, 7.768964492038979], [4.037069210229774, 7.761687822633479], [4.033604129560488, 7.767578459771265], [4.028753016623488, 7.771736556574408], [4.024248411753417, 7.775548145310621], [4.014199677812489, 7.784903863117692], [4.017318250414846, 7.774162113042907], [4.02112983915106, 7.760648298432693], [4.022295697439181, 7.757296455854347], [4.016568950926937, 7.749265555656208], [4.010139944704799, 7.745285694661551], [4.004017081636097, 7.743142692587506], [3.999118791181136, 7.74099969051346], [3.993302071265869, 7.741918119973765], [3.985648492429991, 7.744979551508116], [3.979831772514724, 7.748959412502773], [3.975851911520067, 7.75293927349743], [3.973096623139152, 7.759674422873002], [3.970035191604801, 7.767021858555444], [3.968504475837625, 7.776818439465368], [3.968223257552776, 7.786254982274122], [3.972389892000024, 7.790524726000058], [3.985894949000055, 7.806582049000042], [3.989617502000044, 7.815390278000052], [3.989519886000039, 7.822504541000058], [3.988929015000053, 7.825548451000031], [3.988880773000062, 7.829063771000051], [3.987158762000035, 7.834513765000054], [3.98478405000003, 7.835601531000066], [3.977989275245282, 7.834812797599762], [3.977989275245281, 7.834812797599762], [3.97886919036524, 7.843940055579686], [3.975179930519363, 7.851779732752175], [3.972691996000037, 7.858127368000055], [3.975775402000068, 7.860006082000041], [3.976658592000035, 7.862773117000074], [3.976857328000051, 7.865071597000053], [3.977202692000049, 7.873455630000024], [3.978521192000073, 7.878064874000074], [3.981512986843637, 7.88238981435061], [3.981762592000052, 7.88268481700004], [3.985904058166093, 7.888737549585676], [3.985904058166136, 7.888737549585737], [3.990595550000023, 7.89559414200005], [4.001467216000037, 7.907824500000061], [4.015056152000056, 7.914619335000054], [4.02511292500003, 7.921994354000049], [4.037500558000033, 7.933938358000034], [4.04453458100005, 7.939703373000043], [4.053029395000067, 7.942652983000073], [4.056508282000038, 7.948369900000046], [4.056316336000066, 7.962542709000047], [4.050425362000055, 7.977347292000047], [4.044591499000035, 7.987900447000072], [4.04525471200003, 7.991453017000026], [4.061160178000023, 7.972530581000058], [4.06194573800002, 7.972257692000028], [4.078313811000044, 7.949342389000037], [4.083780408000052, 7.943938165000077], [4.090175679000026, 7.937615988000061]]]]}}, {"type": "Feature", "properties": {"Id": null, "Rock Type": "Silicified Sheared rocks and Quartz veins", "Map Code": "qS", "Mineralogy": "Quartz and silica in sheared zones", "Age": "Precambrian, linked to deformation", "Uses": "Silica sand, glass raw material, mineralization target"}, "geometry": {"type": "MultiPolygon", "coordinates": [[[[3.944580404000021, 7.816415558000074], [3.940356287000043, 7.805451413000071], [3.939280379000024, 7.802659030000029], [3.938043089000075, 7.798330793000048], [3.936186848073097, 7.801411246926528], [3.933563663667697, 7.802110762767968], [3.933913421588418, 7.806832494697687], [3.931989753024458, 7.808231526380567], [3.932514389905537, 7.812428621429206], [3.930066084460498, 7.813827653112086], [3.929366568619058, 7.818024748160726], [3.926218747332578, 7.826943575139085], [3.922321255000043, 7.828502482000033], [3.924114170000053, 7.831907302000047], [3.924417245000029, 7.832956507000063], [3.924425536253136, 7.83322629735546], [3.925059253000029, 7.835910819000048], [3.925713993000045, 7.836806626000055], [3.926210466000043, 7.837668596000071], [3.926612437000074, 7.838465960000065], [3.926922219000062, 7.842460680000045], [3.928759550000052, 7.845146334000049], [3.929321125000058, 7.84588261500005], [3.92975092100005, 7.846965212000043], [3.93000823863836, 7.848054779796625], [3.930975451000052, 7.850307611000062], [3.934049873000049, 7.85050401500007], [3.936765647000072, 7.850579020000055], [3.938268305000065, 7.848342973000058], [3.938919658000032, 7.84763726500006], [3.939720227000066, 7.847046378000073], [3.940399525492, 7.846682306438382], [3.942375267738504, 7.845142789952088], [3.942809399000055, 7.844681812000033], [3.94372319200005, 7.844092475000025], [3.943671154000072, 7.841544491000036], [3.94425562400005, 7.841368279000051], [3.945051076000027, 7.84167820600004], [3.947113926000043, 7.842395252000074], [3.949050611000075, 7.843914219000055], [3.949127891139736, 7.830790912267005], [3.952137243000038, 7.825824275000059], [3.944580404000021, 7.816415558000074]]]]}}, {"type": "Feature", "properties": {"Id": null, "Rock Type": "Silicified Sheared rocks and Quartz veins", "Map Code": "qS", "Mineralogy": "Quartz and silica in sheared zones", "Age": "Precambrian, linked to deformation", "Uses": "Silica sand, glass raw material, mineralization target"}, "geometry": {"type": "MultiPolygon", "coordinates": [[[[3.916737307000062, 7.810610503000021], [3.917458460000034, 7.812290597000072], [3.919923104759619, 7.808581284301287], [3.918873830997459, 7.806657615737327], [3.916179396000075, 7.805624115000057], [3.914765529000022, 7.809404544000074], [3.916737307000062, 7.810610503000021]]]]}}, {"type": "Feature", "properties": {"Id": null, "Rock Type": "Silicified Sheared rocks and Quartz veins", "Map Code": "qS", "Mineralogy": "Quartz and silica in sheared zones", "Age": "Precambrian, linked to deformation", "Uses": "Silica sand, glass raw material, mineralization target"}, "geometry": {"type": "MultiPolygon", "coordinates": [[[[3.96740038400003, 7.857710474000044], [3.970280452000054, 7.857635173000062], [3.972691996000037, 7.858127368000055], [3.97886919036524, 7.843940055579686], [3.977989275245281, 7.834812797599762], [3.968500834000054, 7.833711385000072], [3.961828124758721, 7.831509954609543], [3.961194539404574, 7.842507802611123], [3.963467965889254, 7.845305865976883], [3.962593571087454, 7.851776387510203], [3.965391634453214, 7.854224692955242], [3.963257007000038, 7.857538982000051], [3.96740038400003, 7.857710474000044]]]]}}, {"type": "Feature", "properties": {"Id": null, "Rock Type": "Silicified Sheared rocks and Quartz veins", "Map Code": "qS", "Mineralogy": "Quartz and silica in sheared zones", "Age": "Precambrian, linked to deformation", "Uses": "Silica sand, glass raw material, mineralization target"}, "geometry": {"type": "MultiPolygon", "coordinates": [[[[3.987382282000056, 7.698228408000034], [3.972535193000056, 7.70021474400005], [3.963130432000071, 7.705559408000056], [3.965543592365389, 7.710092030368706], [3.961683082568386, 7.719567827143167], [3.953260152102199, 7.728341713045445], [3.946942954252558, 7.731500311970266], [3.947293909688649, 7.738519420692088], [3.94413531076383, 7.742379930489091], [3.942380533583373, 7.750100950083096], [3.937818112914189, 7.757821969677101], [3.929375898081747, 7.765676944280839], [3.933712859000025, 7.768646877000037], [3.951201470000058, 7.774361099000032], [3.95425378223385, 7.763766871035051], [3.95425378223385, 7.756143693562622], [3.957372354836207, 7.754757661294908], [3.962569975840135, 7.747827499956337], [3.971232677513349, 7.738471782149267], [3.974351250115706, 7.731541620810695], [3.978855854985777, 7.724957967539053], [3.982320935655062, 7.719067330401267], [3.987518556658991, 7.709018596460339], [3.989597605060562, 7.702434943188697], [3.991084791141769, 7.697310512312058], [3.987382282000056, 7.698228408000034]]]]}}, {"type": "Feature", "properties": {"Id": null, "Rock Type": "Silicified Sheared rocks and Quartz veins", "Map Code": "qS", "Mineralogy": "Quartz and silica in sheared zones", "Age": "Precambrian, linked to deformation", "Uses": "Silica sand, glass raw material, mineralization target"}, "geometry": {"type": "MultiPolygon", "coordinates": [[[[3.962103959000046, 7.779984253000066], [3.968223257552776, 7.786254982274122], [3.970035191604801, 7.767021858555444], [3.973096623139152, 7.759674422873002], [3.979831772514724, 7.748959412502773], [3.985648492429991, 7.744979551508116], [3.993302071265869, 7.741918119973765], [4.004017081636097, 7.743142692587506], [4.010139944704799, 7.745285694661551], [4.016568950926937, 7.749265555656208], [4.022295697439181, 7.757296455854347], [4.023901903686489, 7.752678612893337], [4.023901903686489, 7.746787975755551], [4.027020476288845, 7.744362419287052], [4.020090314950274, 7.746787975755551], [4.015932218147132, 7.744015911220123], [4.012813645544774, 7.736739241814623], [4.008655548741633, 7.738125274082337], [4.001032371269204, 7.732234636944552], [3.992716177662919, 7.731541620810695], [3.98994411312749, 7.734313685346124], [3.982667443721991, 7.735699717613838], [3.976776806584206, 7.742629878952409], [3.97088616944642, 7.74956004029098], [3.966728072643278, 7.755450677428765], [3.961876959706278, 7.762034330700407], [3.959451403237778, 7.768271475905122], [3.956576581505023, 7.777133409044079], [3.962103959000046, 7.779984253000066]]]]}}, {"type": "Feature", "properties": {"Id": null, "Rock Type": "Undifferentiated Schist and Gneiss", "Map Code": "Su", "Mineralogy": "Quartz, muscovite, biotite, feldspar", "Age": "Precambrian", "Uses": "Aggregate; weathered zones can hold groundwater"}, "geometry": {"type": "MultiPolygon", "coordinates": [[[[3.907801298000038, 7.737090035000051], [3.90822810100002, 7.745853457000067], [3.913076301000046, 7.752488883000069], [3.917057368416205, 7.756090301681863], [3.916163415000028, 7.72790096600005], [3.907801298000038, 7.737090035000051]]]]}}, {"type": "Feature", "properties": {"Id": null, "Rock Type": "Biotite, Garnet gneiss and Schist", "Map Code": "Sb", "Mineralogy": "Garnet, biotite, quartz, feldspar", "Age": "Precambrian", "Uses": "Aggregate; garnet marks higher-grade metamorphism"}, "geometry": {"type": "MultiPolygon", "coordinates": [[[[4.069413151000049, 7.770573255000045], [4.07083325900004, 7.759752189000039], [4.06601622900007, 7.75494539400006], [4.06125971900002, 7.754265721000024], [4.062710807182486, 7.759955282298836], [4.061671282981701, 7.763766871035051], [4.0592457265132, 7.76861798397205], [4.059592234580129, 7.774508621109836], [4.058899218446272, 7.781092274381479], [4.062364299115558, 7.784557355050763], [4.065155087767853, 7.790911248333201], [4.071606165276969, 7.79324287731794], [4.070092638000062, 7.784162468000034], [4.069413151000049, 7.770573255000045]]]]}}]}